STARLINK-31975          
1 59886U 24100B   26068.54015810 -.00008701  00000+0 -30686-3 0  9992
2 59886  43.0001 126.2718 0000859 177.9327 182.1528 15.27599660101134
NUSAT-48 (HENRIETTA LE*)
1 60498U 24149AG  26068.80506098  .00012988  00000+0  45212-3 0  9999
2 60498  97.3923 150.8264 0002754 263.3026  96.7901 15.29812597 86946
